[
    {
        "Altitude(m)": 702878.9170349066,
        "Argument of Periapsis(deg)": 0.006834072711976239,
        "Eccentricity": 0.0,
        "Inclination(deg)": 45.0,
        "Latitude(deg)": 17.969662305516014,
        "Longitude(deg)": -119.27180183025033,
        "Mean Anomaly(deg)": 154.1926299884885,
        "RAAN(deg)": 179.99354883512507,
        "Satellite Name": "Constellation 1 801",
        "Satellite Number": 801,
        "Semi-Major Axis(m)": 7083131.272910544,
        "Time(s)": 114
    },
    {
        "Altitude(m)": 702876.3686080568,
        "Argument of Periapsis(deg)": 0.006894020718221645,
        "Eccentricity": 0.0,
        "Inclination(deg)": 45.0,
        "Latitude(deg)": 17.928773158516876,
        "Longitude(deg)": -119.22856801385596,
        "Mean Anomaly(deg)": 154.25333112873838,
        "RAAN(deg)": 179.99349224595952,
        "Satellite Name": "Constellation 1 801",
        "Satellite Number": 801,
        "Semi-Major Axis(m)": 7083131.272910544,
        "Time(s)": 115
    },
    {
        "Altitude(m)": 702873.8356316838,
        "Argument of Periapsis(deg)": 0.006953968724467052,
        "Eccentricity": 0.0,
        "Inclination(deg)": 45.0,
        "Latitude(deg)": 17.887872343461822,
        "Longitude(deg)": -119.1853559367132,
        "Mean Anomaly(deg)": 154.31403226898829,
        "RAAN(deg)": 179.99343565679393,
        "Satellite Name": "Constellation 1 801",
        "Satellite Number": 801,
        "Semi-Major Axis(m)": 7083131.272910544,
        "Time(s)": 116
    },
    {
        "Altitude(m)": 702871.3181344083,
        "Argument of Periapsis(deg)": 0.007013916730712457,
        "Eccentricity": 0.0,
        "Inclination(deg)": 45.0,
        "Latitude(deg)": 17.84695989396405,
        "Longitude(deg)": -119.14216554217101,
        "Mean Anomaly(deg)": 154.37473340923813,
        "RAAN(deg)": 179.99337906762835,
        "Satellite Name": "Constellation 1 801",
        "Satellite Number": 801,
        "Semi-Major Axis(m)": 7083131.272910544,
        "Time(s)": 117
    },
    {
        "Altitude(m)": 702868.8161447992,
        "Argument of Periapsis(deg)": 0.007073864736957864,
        "Eccentricity": 0.0,
        "Inclination(deg)": 45.0,
        "Latitude(deg)": 17.806035843594024,
        "Longitude(deg)": -119.09899677360912,
        "Mean Anomaly(deg)": 154.43543454948812,
        "RAAN(deg)": 179.9933224784628,
        "Satellite Name": "Constellation 1 801",
        "Satellite Number": 801,
        "Semi-Major Axis(m)": 7083131.272910544,
        "Time(s)": 118
    },
    {
        "Altitude(m)": 702866.3296913431,
        "Argument of Periapsis(deg)": 0.0071338127432032696,
        "Eccentricity": 0.0,
        "Inclination(deg)": 45.0,
        "Latitude(deg)": 17.765100225880033,
        "Longitude(deg)": -119.05584974253517,
        "Mean Anomaly(deg)": 154.496135689738,
        "RAAN(deg)": 179.99326588929722,
        "Satellite Name": "Constellation 1 801",
        "Satellite Number": 801,
        "Semi-Major Axis(m)": 7083131.272910544,
        "Time(s)": 119
    },
    {
        "Altitude(m)": 702863.8588024909,
        "Argument of Periapsis(deg)": 0.007193760749448674,
        "Eccentricity": 0.0,
        "Inclination(deg)": 45.0,
        "Latitude(deg)": 17.72415307430717,
        "Longitude(deg)": -119.01272405619657,
        "Mean Anomaly(deg)": 154.55683682998782,
        "RAAN(deg)": 179.99320930013167,
        "Satellite Name": "Constellation 1 801",
        "Satellite Number": 801,
        "Semi-Major Axis(m)": 7083131.272910544,
        "Time(s)": 120
    },
    {
        "Altitude(m)": 702861.4035066152,
        "Argument of Periapsis(deg)": 0.007253708755694079,
        "Eccentricity": 0.0,
        "Inclination(deg)": 45.0,
        "Latitude(deg)": 17.683194422318756,
        "Longitude(deg)": -118.96961982616232,
        "Mean Anomaly(deg)": 154.6175379702378,
        "RAAN(deg)": 179.99315271096611,
        "Satellite Name": "Constellation 1 801",
        "Satellite Number": 801,
        "Semi-Major Axis(m)": 7083131.272910544,
        "Time(s)": 121
    },
    {
        "Altitude(m)": 702858.9638320281,
        "Argument of Periapsis(deg)": 0.0073136567619394854,
        "Eccentricity": 0.0,
        "Inclination(deg)": 45.0,
        "Latitude(deg)": 17.642224303315928,
        "Longitude(deg)": -118.92653699593554,
        "Mean Anomaly(deg)": 154.67823911048768,
        "RAAN(deg)": 179.9930961218005,
        "Satellite Name": "Constellation 1 801",
        "Satellite Number": 801,
        "Semi-Major Axis(m)": 7083131.272910544,
        "Time(s)": 122
    },
    {
        "Altitude(m)": 702856.539806988,
        "Argument of Periapsis(deg)": 0.0073736047681848904,
        "Eccentricity": 0.0,
        "Inclination(deg)": 45.0,
        "Latitude(deg)": 17.60124275065746,
        "Longitude(deg)": -118.88347550904992,
        "Mean Anomaly(deg)": 154.7389402507376,
        "RAAN(deg)": 179.99303953263495,
        "Satellite Name": "Constellation 1 801",
        "Satellite Number": 801,
        "Semi-Major Axis(m)": 7083131.272910544,
        "Time(s)": 123
    },
    {
        "Altitude(m)": 702854.1314596819,
        "Argument of Periapsis(deg)": 0.007433552774430298,
        "Eccentricity": 0.0,
        "Inclination(deg)": 45.0,
        "Latitude(deg)": 17.56024979766035,
        "Longitude(deg)": -118.84043530907034,
        "Mean Anomaly(deg)": 154.79964139098746,
        "RAAN(deg)": 179.99298294346937,
        "Satellite Name": "Constellation 1 801",
        "Satellite Number": 801,
        "Semi-Major Axis(m)": 7083131.272910544,
        "Time(s)": 124
    },
    {
        "Altitude(m)": 702851.7388182435,
        "Argument of Periapsis(deg)": 0.007493500780675703,
        "Eccentricity": 0.0,
        "Inclination(deg)": 45.0,
        "Latitude(deg)": 17.519245477599597,
        "Longitude(deg)": -118.79741633959229,
        "Mean Anomaly(deg)": 154.8603425312374,
        "RAAN(deg)": 179.99292635430382,
        "Satellite Name": "Constellation 1 801",
        "Satellite Number": 801,
        "Semi-Major Axis(m)": 7083131.272910544,
        "Time(s)": 125
    },
    {
        "Altitude(m)": 702849.3619107351,
        "Argument of Periapsis(deg)": 0.007553448786921108,
        "Eccentricity": 0.0,
        "Inclination(deg)": 45.0,
        "Latitude(deg)": 17.47822982370873,
        "Longitude(deg)": -118.75441871233933,
        "Mean Anomaly(deg)": 154.9210436714873,
        "RAAN(deg)": 179.99286976513827,
        "Satellite Name": "Constellation 1 801",
        "Satellite Number": 801,
        "Semi-Major Axis(m)": 7083131.272910544,
        "Time(s)": 126
    },
    {
        "Altitude(m)": 702847.0007651618,
        "Argument of Periapsis(deg)": 0.007613396793166514,
        "Eccentricity": 0.0,
        "Inclination(deg)": 45.0,
        "Latitude(deg)": 17.437202869178993,
        "Longitude(deg)": -118.71144203477488,
        "Mean Anomaly(deg)": 154.98174481173714,
        "RAAN(deg)": 179.99281317597266,
        "Satellite Name": "Constellation 1 801",
        "Satellite Number": 801,
        "Semi-Major Axis(m)": 7083131.272910544,
        "Time(s)": 127
    },
    {
        "Altitude(m)": 702844.6554094661,
        "Argument of Periapsis(deg)": 0.007673344799411918,
        "Eccentricity": 0.0,
        "Inclination(deg)": 45.0,
        "Latitude(deg)": 17.396164647160646,
        "Longitude(deg)": -118.66848641868422,
        "Mean Anomaly(deg)": 155.04244595198708,
        "RAAN(deg)": 179.9927565868071,
        "Satellite Name": "Constellation 1 801",
        "Satellite Number": 801,
        "Semi-Major Axis(m)": 7083131.272910544,
        "Time(s)": 128
    },
    {
        "Altitude(m)": 702842.3258715274,
        "Argument of Periapsis(deg)": 0.007733292805657325,
        "Eccentricity": 0.0,
        "Inclination(deg)": 45.0,
        "Latitude(deg)": 17.355115190762508,
        "Longitude(deg)": -118.62555180778679,
        "Mean Anomaly(deg)": 155.10314709223698,
        "RAAN(deg)": 179.99269999764155,
        "Satellite Name": "Constellation 1 801",
        "Satellite Number": 801,
        "Semi-Major Axis(m)": 7083131.272910544,
        "Time(s)": 129
    },
    {
        "Altitude(m)": 702840.0121791605,
        "Argument of Periapsis(deg)": 0.00779324081190273,
        "Eccentricity": 0.0,
        "Inclination(deg)": 45.0,
        "Latitude(deg)": 17.314054533051923,
        "Longitude(deg)": -118.58263814583279,
        "Mean Anomaly(deg)": 155.16384823248683,
        "RAAN(deg)": 179.99264340847597,
        "Satellite Name": "Constellation 1 801",
        "Satellite Number": 801,
        "Semi-Major Axis(m)": 7083131.272910544,
        "Time(s)": 130
    },
    {
        "Altitude(m)": 702837.7143601176,
        "Argument of Periapsis(deg)": 0.007853188818148135,
        "Eccentricity": 0.0,
        "Inclination(deg)": 45.0,
        "Latitude(deg)": 17.272982707055057,
        "Longitude(deg)": -118.5397453766034,
        "Mean Anomaly(deg)": 155.2245493727368,
        "RAAN(deg)": 179.9925868193104,
        "Satellite Name": "Constellation 1 801",
        "Satellite Number": 801,
        "Semi-Major Axis(m)": 7083131.272910544,
        "Time(s)": 131
    },
    {
        "Altitude(m)": 702835.4324420878,
        "Argument of Periapsis(deg)": 0.007913136824393542,
        "Eccentricity": 0.0,
        "Inclination(deg)": 45.0,
        "Latitude(deg)": 17.23189974575722,
        "Longitude(deg)": -118.49687344391114,
        "Mean Anomaly(deg)": 155.2852505129867,
        "RAAN(deg)": 179.9925302301448,
        "Satellite Name": "Constellation 1 801",
        "Satellite Number": 801,
        "Semi-Major Axis(m)": 7083131.272910544,
        "Time(s)": 132
    }
]